ISS (ZARYA)             
1 25544U 98067A   26166.18985271  .00007715  00000+0  14683-3 0  9996
2 25544  51.6338 309.9786 0004834 187.9159 172.1754 15.49238068571443
OSCAR 7 (AO-7)          
1 07530U 74089B   26165.98761480 -.00000032  00000+0  88532-4 0  9991
2 07530 101.9901 179.2113 0012545 134.1981 283.5201 12.53698088360242
PHASE 3B (AO-10)        
1 14129U 83058B   26165.45605944  .00000123  00000+0  00000+0 0  9992
2 14129  25.9101 220.0173 6011772 114.9164 317.3873  2.05868899295432
UOSAT 2 (UO-11)         
1 14781U 84021B   26166.14064494  .00001057  00000+0  11313-3 0  9993
2 14781  97.8057 131.7382 0007444 179.3593 180.7636 14.90778795256821
LUSAT (LO-19)           
1 20442U 90005G   26166.01913243  .00000104  00000+0  53800-4 0  9994
2 20442  98.8851 187.7650 0010995 207.7672 152.2926 14.34122634902088
EYESAT A (AO-27)        
1 22825U 93061C   26166.18185475  .00000084  00000+0  48753-4 0  9990
2 22825  98.6881 233.5961 0009521 104.9010 255.3227 14.30941747706719
ITAMSAT (IO-26)         
1 22826U 93061D   26166.16186548  .00000083  00000+0  48145-4 0  9995
2 22826  98.6828 233.4933 0010091  90.3104 269.9235 14.31368614707027
RADIO ROSTO (RS15)      
1 23439U 94085A   26166.07613199 -.00000050  00000+0 -22573-3 0  9992
2 23439  64.8180 306.6304 0155887   4.2663 355.9551 11.27583507295667
JAS-2 (FO-29)           
1 24278U 96046B   26166.16701574  .00000014  00000+0  47153-4 0  9998
2 24278  98.5240  15.3160 0350879 101.6601 262.4132 13.53274235472891
TECHSAT 1B (GO-32)      
1 25397U 98043D   26165.95709969  .00000038  00000+0  36595-4 0  9996
2 25397  99.0066 158.6595 0000936 168.0137 192.1063 14.24428011451011
PCSAT (NO-44)           
1 26931U 01043C   26166.27348919  .00000083  00000+0  61820-4 0  9994
2 26931  67.0506 249.2215 0006066 264.6095  95.4315 14.31955478290175
SAUDISAT 1C (SO-50)     
1 27607U 02058C   26166.26718992  .00000865  00000+0  11946-3 0  9994
2 27607  64.5509 134.9258 0075306 262.8261  96.4279 14.83043102264176
CUTE-1 (CO-55)          
1 27844U 03031E   26166.28097488  .00000237  00000+0  12153-3 0  9995
2 27844  98.6736 174.8638 0009408 183.5236 176.5879 14.24334631191401
CUBESAT XI-IV (CO-57)   
1 27848U 03031J   26165.98734313  .00000202  00000+0  10800-3 0  9999
2 27848  98.6767 174.2883 0008884 203.7736 156.3033 14.23619747191065
MOZHAETS 4 (RS22)       
1 27939U 03042A   26166.31364517  .00001045  00000+0  16924-3 0  9994
2 27939  98.3463 350.6196 0009947 276.6057 160.2124 14.73465411215276
CUBESAT XI-V            
1 28895U 05043F   26165.88858498  .00001256  00000+0  20533-3 0  9991
2 28895  98.2983 321.4622 0013493 208.2706 151.7770 14.72626136101411
CUTE-1.7+APD II (CO-65) 
1 32785U 08021C   26166.26004465  .00003803  00000+0  24165-3 0  9998
2 32785  97.8271 147.6385 0010021  45.1907 315.0134 15.09436261984909
SEEDS II (CO-66)        
1 32791U 08021J   26165.98115090  .00016500  00000+0  52480-3 0  9999
2 32791  97.7510 163.7734 0001398  12.1045 348.0229 15.32687041986950
YUBILEINY (RS30)        
1 32953U 08025A   26166.32794534  .00000111  00000+0  72857-3 0  9999
2 32953  82.5040 356.5974 0018931 318.1097  41.8534 12.43179679819465
KKS-1 (KISEKI)          
1 33499U 09002H   26166.30007707  .00001154  00000+0  14840-3 0  9994
2 33499  98.1191  88.7124 0006626 303.2064  56.8513 14.83119606935911
SWISSCUBE               
1 35932U 09051B   26166.25297169  .00000842  00000+0  17592-3 0  9999
2 35932  98.4038  74.1075 0005844 209.7614 150.3255 14.62478329888876
BEESAT-1                
1 35933U 09051C   26166.26140066  .00000698  00000+0  14995-3 0  9997
2 35933  98.3966  73.7557 0004121 224.3170 135.7701 14.61717657888909
ITUPSAT1                
1 35935U 09051E   26165.22290826  .00000683  00000+0  15098-3 0  9993
2 35935  98.4052  71.8963 0006164 244.9503 115.1057 14.60436749888304
XIWANG-1 (HOPE-1)       
1 36122U 09072B   26166.26790389 -.00000200  00000+0 -40773-3 0  9994
2 36122 100.4023 120.1306 0006845 236.3364 123.7097 13.16438837792752
O/OREOS (USA 219)       
1 37224U 10062C   26166.18705999  .00002000  00000+0  19439-3 0  9996
2 37224  71.9714  84.8700 0012504  67.4228 292.8264 14.93736891116346
JUGNU                   
1 37839U 11058B   26166.12908786  .00000399  00000+0  69103-4 0  9990
2 37839  19.9618 320.9329 0018627  53.5996 113.0994 14.13776231758737
SRMSAT                  
1 37841U 11058D   26166.09346315  .00000356  00000+0  49299-4 0  9990
2 37841  19.9720  72.1399 0011838 180.5594 207.7984 14.11575160757521
STRAND-1                
1 39090U 13009E   26165.75848833  .00000234  00000+0  92916-4 0  9999
2 39090  98.3921 346.0527 0007612 233.5298 126.5188 14.37162022696718
ZACUBE-1 (TSHEPISOSAT)  
1 39417U 13066B   26166.14099515  .00003020  00000+0  23640-3 0  9997
2 39417  97.8083 128.4670 0040580 254.8393 104.8341 15.01179105680421
GOMX-1                  
1 39430U 13066Q   26166.27934856  .00001958  00000+0  29764-3 0  9993
2 39430  97.6480   6.8625 0130165  83.6082 277.9929 14.69455078669639
